start=new Date('2023-05-24T00:00:00.000Z').valueOf();
sats=[{"TLE_LINE2":"2 55760  69.9991 298.1548 0002805 270.0277  90.0561 14.98327424 13138","CENTER_NAME":"EARTH","APOAPSIS":"574.015","SITE":"AFWTR","RA_OF_ASC_NODE":"298.1548","TLE_LINE1":"1 55760U 23028V   23143.85553732  .00000881  00000-0  81643-4 0  9992","LAUNCH_DATE":"2023-03-03","INCLINATION":"69.9991","OBJECT_ID":"2023-028V","REV_AT_EPOCH":"1313","EPOCH":"2023-05-23T20:31:58.424448","ELEMENT_SET_NO":"999","TIME_SYSTEM":"UTC","MEAN_MOTION_DDOT":"0.0000000000000","BSTAR":"0.00008164300000","GP_ID":"232406466","MEAN_ANOMALY":"90.0561","ARG_OF_PERICENTER":"270.0277","FILE":"3915766","DECAY_DATE":null,"MEAN_ELEMENT_THEORY":"SGP4","REF_FRAME":"TEME","MEAN_MOTION_DOT":"0.00000881","MEAN_MOTION":"14.98327424","PERIOD":"96.107","NORAD_CAT_ID":"55760","EPHEMERIS_TYPE":"0","COUNTRY_CODE":"US","RCS_SIZE":"LARGE","OBJECT_TYPE":"PAYLOAD","CLASSIFICATION_TYPE":"U","OBJECT_NAME":"STARLINK-5532","PERIAPSIS":"570.116","ECCENTRICITY":"0.00028050","SEMIMAJOR_AXIS":"6950.201"},{"RA_OF_ASC_NODE":"287.3458","CENTER_NAME":"EARTH","TLE_LINE2":"2 55761  69.9992 287.3458 0003938 275.8230  84.2516 15.69929641 13391","SITE":"AFWTR","APOAPSIS":"361.753","LAUNCH_DATE":"2023-03-03","TLE_LINE1":"1 55761U 23028W   23143.80065674  .00002886  00000-0  25758-4 0  9993","ELEMENT_SET_NO":"999","EPOCH":"2023-05-23T19:12:56.742336","TIME_SYSTEM":"UTC","REV_AT_EPOCH":"1339","OBJECT_ID":"2023-028W","INCLINATION":"69.9992","GP_ID":"232406716","BSTAR":"0.00002575800000","MEAN_MOTION_DDOT":"0.0000000000000","ARG_OF_PERICENTER":"275.8230","MEAN_ANOMALY":"84.2516","DECAY_DATE":null,"MEAN_ELEMENT_THEORY":"SGP4","MEAN_MOTION_DOT":"0.00002886","REF_FRAME":"TEME","MEAN_MOTION":"15.69929641","FILE":"3915766","CLASSIFICATION_TYPE":"U","COUNTRY_CODE":"US","RCS_SIZE":"LARGE","OBJECT_TYPE":"PAYLOAD","NORAD_CAT_ID":"55761","PERIOD":"91.724","EPHEMERIS_TYPE":"0","SEMIMAJOR_AXIS":"6737.235","PERIAPSIS":"356.447","OBJECT_NAME":"STARLINK-5611","ECCENTRICITY":"0.00039380"},{"ECCENTRICITY":"0.00034430","PERIAPSIS":"356.748","OBJECT_NAME":"STARLINK-5603","SEMIMAJOR_AXIS":"6737.202","EPHEMERIS_TYPE":"0","NORAD_CAT_ID":"55762","PERIOD":"91.723","CLASSIFICATION_TYPE":"U","COUNTRY_CODE":"US","RCS_SIZE":"LARGE","OBJECT_TYPE":"PAYLOAD","FILE":"3915766","REF_FRAME":"TEME","MEAN_MOTION_DOT":"-0.00000855","MEAN_MOTION":"15.69941157","MEAN_ELEMENT_THEORY":"SGP4","DECAY_DATE":null,"MEAN_ANOMALY":"88.3237","ARG_OF_PERICENTER":"271.7564","MEAN_MOTION_DDOT":"0.0000000000000","GP_ID":"232407468","BSTAR":"-0.00000533780000","INCLINATION":"69.9975","REV_AT_EPOCH":"1339","OBJECT_ID":"2023-028X","TIME_SYSTEM":"UTC","ELEMENT_SET_NO":"999","EPOCH":"2023-05-23T19:12:19.833984","TLE_LINE1":"1 55762U 23028X   23143.80022956 -.00000855  00000-0 -53378-5 0  9996","LAUNCH_DATE":"2023-03-03","APOAPSIS":"361.387","SITE":"AFWTR","CENTER_NAME":"EARTH","TLE_LINE2":"2 55762  69.9975 287.3468 0003443 271.7564  88.3237 15.69941157 13391","RA_OF_ASC_NODE":"287.3468"},{"PERIOD":"96.107","NORAD_CAT_ID":"55763","EPHEMERIS_TYPE":"0","COUNTRY_CODE":"US","RCS_SIZE":"LARGE","OBJECT_TYPE":"PAYLOAD","CLASSIFICATION_TYPE":"U","OBJECT_NAME":"STARLINK-5593","PERIAPSIS":"569.733","ECCENTRICITY":"0.00033600","SEMIMAJOR_AXIS":"6950.203","MEAN_ANOMALY":"87.2987","ARG_OF_PERICENTER":"272.7787","FILE":"3915766","DECAY_DATE":null,"MEAN_ELEMENT_THEORY":"SGP4","MEAN_MOTION_DOT":"0.00001029","MEAN_MOTION":"14.98326781","REF_FRAME":"TEME","OBJECT_ID":"2023-028Y","INCLINATION":"69.9994","REV_AT_EPOCH":"1312","EPOCH":"2023-05-23T19:01:36.667200","ELEMENT_SET_NO":"999","TIME_SYSTEM":"UTC","MEAN_MOTION_DDOT":"0.0000000000000","BSTAR":"0.00009402500000","GP_ID":"232407717","TLE_LINE2":"2 55763  69.9994 298.3400 0003360 272.7787  87.2987 14.98326781 13129","CENTER_NAME":"EARTH","APOAPSIS":"574.403","SITE":"AFWTR","RA_OF_ASC_NODE":"298.3400","TLE_LINE1":"1 55763U 23028Y   23143.79278550  .00001029  00000-0  94025-4 0  9993","LAUNCH_DATE":"2023-03-03"},{"EPOCH":"2023-05-23T19:12:29.640384","ELEMENT_SET_NO":"999","TIME_SYSTEM":"UTC","INCLINATION":"69.9995","REV_AT_EPOCH":"1339","OBJECT_ID":"2023-028Z","BSTAR":"0.00003325300000","GP_ID":"232406967","MEAN_MOTION_DDOT":"0.0000000000000","RA_OF_ASC_NODE":"287.3465","TLE_LINE2":"2 55764  69.9995 287.3465 0003416 268.5917  91.4887 15.69926896 13397","CENTER_NAME":"EARTH","SITE":"AFWTR","APOAPSIS":"361.410","LAUNCH_DATE":"2023-03-03","TLE_LINE1":"1 55764U 23028Z   23143.80034306  .00003788  00000-0  33253-4 0  9995","COUNTRY_CODE":"US","RCS_SIZE":"LARGE","OBJECT_TYPE":"PAYLOAD","CLASSIFICATION_TYPE":"U","PERIOD":"91.724","NORAD_CAT_ID":"55764","EPHEMERIS_TYPE":"0","SEMIMAJOR_AXIS":"6737.243","OBJECT_NAME":"STARLINK-5499","PERIAPSIS":"356.807","ECCENTRICITY":"0.00034160","ARG_OF_PERICENTER":"268.5917","MEAN_ANOMALY":"91.4887","DECAY_DATE":null,"MEAN_ELEMENT_THEORY":"SGP4","MEAN_MOTION":"15.69926896","MEAN_MOTION_DOT":"0.00003788","REF_FRAME":"TEME","FILE":"3915766"},{"SEMIMAJOR_AXIS":"6737.243","ECCENTRICITY":"0.00036230","PERIAPSIS":"356.667","OBJECT_NAME":"STARLINK-5595","CLASSIFICATION_TYPE":"U","RCS_SIZE":"LARGE","COUNTRY_CODE":"US","OBJECT_TYPE":"PAYLOAD","EPHEMERIS_TYPE":"0","NORAD_CAT_ID":"55765","PERIOD":"91.724","MEAN_MOTION_DOT":"0.00000885","REF_FRAME":"TEME","MEAN_MOTION":"15.69926963","DECAY_DATE":null,"MEAN_ELEMENT_THEORY":"SGP4","FILE":"3915766","ARG_OF_PERICENTER":"274.1854","MEAN_ANOMALY":"85.8928","GP_ID":"232407217","BSTAR":"0.00000912790000","MEAN_MOTION_DDOT":"0.0000000000000","TIME_SYSTEM":"UTC","ELEMENT_SET_NO":"999","EPOCH":"2023-05-23T19:12:38.719296","INCLINATION":"69.9984","OBJECT_ID":"2023-028AA","REV_AT_EPOCH":"1339","LAUNCH_DATE":"2023-03-03","TLE_LINE1":"1 55765U 23028AA  23143.80044814  .00000885  00000-0  91279-5 0  9999","RA_OF_ASC_NODE":"287.3474","APOAPSIS":"361.549","SITE":"AFWTR","CENTER_NAME":"EARTH","TLE_LINE2":"2 55765  69.9984 287.3474 0003623 274.1854  85.8928 15.69926963 13397"},{"MEAN_ANOMALY":"83.8199","ARG_OF_PERICENTER":"276.2549","FILE":"3915766","MEAN_MOTION_DOT":"0.00002078","MEAN_MOTION":"15.69927473","REF_FRAME":"TEME","DECAY_DATE":null,"MEAN_ELEMENT_THEORY":"SGP4","EPHEMERIS_TYPE":"0","PERIOD":"91.724","NORAD_CAT_ID":"55766","COUNTRY_CODE":"US","OBJECT_TYPE":"PAYLOAD","RCS_SIZE":"LARGE","CLASSIFICATION_TYPE":"U","ECCENTRICITY":"0.00039300","OBJECT_NAME":"STARLINK-5599","PERIAPSIS":"356.459","SEMIMAJOR_AXIS":"6737.241","SITE":"AFWTR","APOAPSIS":"361.754","TLE_LINE2":"2 55766  69.9973 287.3435 0003930 276.2549  83.8199 15.69927473 13393","CENTER_NAME":"EARTH","RA_OF_ASC_NODE":"287.3435","TLE_LINE1":"1 55766U 23028AB  23143.79981183  .00002078  00000-0  19042-4 0  9990","LAUNCH_DATE":"2023-03-03","REV_AT_EPOCH":"1339","INCLINATION":"69.9973","OBJECT_ID":"2023-028AB","TIME_SYSTEM":"UTC","EPOCH":"2023-05-23T19:11:43.742112","ELEMENT_SET_NO":"999","MEAN_MOTION_DDOT":"0.0000000000000","BSTAR":"0.00001904200000","GP_ID":"232407969"},{"TLE_LINE1":"1 55767U 23028AC  23143.80054369 -.00001815  00000-0 -13311-4 0  9993","LAUNCH_DATE":"2023-03-03","APOAPSIS":"361.212","SITE":"AFWTR","TLE_LINE2":"2 55767  69.9985 287.3491 0003218 264.9653  95.1176 15.69949227 13390","CENTER_NAME":"EARTH","RA_OF_ASC_NODE":"287.3491","MEAN_MOTION_DDOT":"0.0000000000000","BSTAR":"-0.00001331100000","GP_ID":"232408218","INCLINATION":"69.9985","OBJECT_ID":"2023-028AC","REV_AT_EPOCH":"1339","TIME_SYSTEM":"UTC","EPOCH":"2023-05-23T19:12:46.974816","ELEMENT_SET_NO":"999","FILE":"3915766","MEAN_MOTION_DOT":"-0.00001815","MEAN_MOTION":"15.69949227","REF_FRAME":"TEME","DECAY_DATE":null,"MEAN_ELEMENT_THEORY":"SGP4","MEAN_ANOMALY":"95.1176","ARG_OF_PERICENTER":"264.9653","ECCENTRICITY":"0.00032180","OBJECT_NAME":"STARLINK-5606","PERIAPSIS":"356.876","SEMIMAJOR_AXIS":"6737.179","EPHEMERIS_TYPE":"0","PERIOD":"91.723","NORAD_CAT_ID":"55767","RCS_SIZE":"LARGE","COUNTRY_CODE":"US","OBJECT_TYPE":"PAYLOAD","CLASSIFICATION_TYPE":"U"},{"LAUNCH_DATE":"2023-03-03","TLE_LINE1":"1 55768U 23028AD  23143.80013220  .00002527  00000-0  22787-4 0  9991","RA_OF_ASC_NODE":"287.3440","CENTER_NAME":"EARTH","TLE_LINE2":"2 55768  69.9969 287.3440 0003688 277.4883  82.5894 15.69919066 13397","APOAPSIS":"361.615","SITE":"AFWTR","GP_ID":"232406467","BSTAR":"0.00002278700000","MEAN_MOTION_DDOT":"0.0000000000000","ELEMENT_SET_NO":"999","EPOCH":"2023-05-23T19:12:11.422080","TIME_SYSTEM":"UTC","OBJECT_ID":"2023-028AD","INCLINATION":"69.9969","REV_AT_EPOCH":"1339","DECAY_DATE":null,"MEAN_ELEMENT_THEORY":"SGP4","MEAN_MOTION_DOT":"0.00002527","REF_FRAME":"TEME","MEAN_MOTION":"15.69919066","FILE":"3915766","ARG_OF_PERICENTER":"277.4883","MEAN_ANOMALY":"82.5894","SEMIMAJOR_AXIS":"6737.266","PERIAPSIS":"356.646","OBJECT_NAME":"STARLINK-5583","ECCENTRICITY":"0.00036880","CLASSIFICATION_TYPE":"U","OBJECT_TYPE":"PAYLOAD","COUNTRY_CODE":"US","RCS_SIZE":"LARGE","PERIOD":"91.724","NORAD_CAT_ID":"55768","EPHEMERIS_TYPE":"0"},{"MEAN_MOTION_DDOT":"0.0000000000000","GP_ID":"232406717","BSTAR":"0.00001690100000","OBJECT_ID":"2023-028AE","INCLINATION":"69.9986","REV_AT_EPOCH":"1339","TIME_SYSTEM":"UTC","ELEMENT_SET_NO":"999","EPOCH":"2023-05-23T19:12:01.568160","TLE_LINE1":"1 55769U 23028AE  23143.80001815  .00001821  00000-0  16901-4 0  9996","LAUNCH_DATE":"2023-03-03","SITE":"AFWTR","APOAPSIS":"361.865","CENTER_NAME":"EARTH","TLE_LINE2":"2 55769  69.9986 287.3474 0004123 272.6547  87.4176 15.69934339 13390","RA_OF_ASC_NODE":"287.3474","ECCENTRICITY":"0.00041230","PERIAPSIS":"356.309","OBJECT_NAME":"STARLINK-5584","SEMIMAJOR_AXIS":"6737.222","EPHEMERIS_TYPE":"0","PERIOD":"91.724","NORAD_CAT_ID":"55769","CLASSIFICATION_TYPE":"U","OBJECT_TYPE":"PAYLOAD","COUNTRY_CODE":"US","RCS_SIZE":"LARGE","FILE":"3915766","MEAN_MOTION_DOT":"0.00001821","MEAN_MOTION":"15.69934339","REF_FRAME":"TEME","DECAY_DATE":null,"MEAN_ELEMENT_THEORY":"SGP4","MEAN_ANOMALY":"87.4176","ARG_OF_PERICENTER":"272.6547"}];
